OBJECT_NAME,OBJECT_ID,EPOCH,MEAN_MOTION,ECCENTRICITY,INCLINATION,RA_OF_ASC_NODE,ARG_OF_PERICENTER,MEAN_ANOMALY,EPHEMERIS_TYPE,CLASSIFICATION_TYPE,NORAD_CAT_ID,ELEMENT_SET_NO,REV_AT_EPOCH,BSTAR,MEAN_MOTION_DOT,MEAN_MOTION_DDOT
STARLINK-37607,2026-133G,2026-06-26T06:00:02.000160,15.80830494,.00007365,53.1594,276.5422,90.0119,213.7459,0,U,69514,999,332,.55498019E-3,.110024E-2,0
STARLINK-37232,2026-133H,2026-06-26T06:00:02.000160,15.80825353,.00014765,53.1586,276.4967,87.8374,237.9902,0,U,69515,999,332,.60809261E-3,.120745E-2,0
STARLINK-37323,2026-133J,2026-06-26T06:00:02.000160,15.80828474,.00015189,53.1591,276.4902,107.9908,220.8897,0,U,69516,999,332,.88088793E-3,.176393E-2,0
STARLINK-37357,2026-133K,2026-06-26T06:00:02.000160,15.80859270,.00011529,53.1589,276.4628,100.0262,242.0482,0,U,69517,999,332,.2289967E-3,.44703E-3,0
STARLINK-37408,2026-133L,2026-06-26T06:00:02.000160,15.80875736,.00008429,53.1589,276.4483,58.6776,290.3786,0,U,69518,999,332,.18946339E-3,.36859E-3,0
STARLINK-37570,2026-133M,2026-06-26T06:00:02.000160,15.80810956,.00007385,53.1590,276.3868,63.9469,314.2980,0,U,69519,999,332,.70617842E-3,.140564E-2,0
STARLINK-37510,2026-133N,2026-06-26T06:00:02.000160,15.80863790,.00008104,53.1588,276.4219,62.9213,298.8138,0,U,69520,999,332,.2730954E-3,.53513E-3,0
STARLINK-37586,2026-133P,2026-06-26T06:00:02.000160,15.83829343,.000074,53.1573,276.3225,86.3230,323.0458,0,U,69521,999,332,-.80873926E-2,-.1604546E-1,0
STARLINK-37379,2026-133Q,2026-06-26T06:00:02.000160,15.82030106,.00006194,53.1584,276.3200,93.5811,316.9033,0,U,69522,999,337,-.75603028E-2,-.1401885E-1,0
STARLINK-37429,2026-133R,2026-06-26T06:00:02.000160,15.82389267,.00009082,53.1581,276.3007,73.9583,345.6865,0,U,69523,999,337,-.88572229E-2,-.1635816E-1,0
STARLINK-37352,2026-133S,2026-06-26T06:00:02.000160,15.82891500,.00006149,53.1580,276.2703,90.4495,343.7988,0,U,69524,999,337,-.88390761E-2,-.1666837E-1,0
STARLINK-37490,2026-133T,2026-06-26T06:00:02.000160,15.85646786,.00011555,53.1562,276.1888,79.1854,34.1994,0,U,69525,999,337,-.93514824E-2,-.2008263E-1,0
STARLINK-37438,2026-133U,2026-06-26T06:00:02.000160,15.83264933,.00008162,53.1577,276.2453,81.5119,5.0903,0,U,69526,999,337,-.99288516E-2,-.1913455E-1,0
STARLINK-37484,2026-133V,2026-06-26T06:00:02.000160,15.85863084,.00009649,53.1561,276.1752,82.8136,37.0761,0,U,69527,999,337,-.90602964E-2,-.1971936E-1,0
STARLINK-37523,2026-133W,2026-06-26T06:00:02.000160,15.84491644,.00009219,53.1569,276.1644,83.9058,41.2153,0,U,69528,999,337,-.88585356E-2,-.1823806E-1,0
STARLINK-37369,2026-133X,2026-06-26T06:00:02.000160,15.84805180,.00010427,53.1562,276.1423,66.5874,68.9585,0,U,69529,999,337,-.87244788E-2,-.1784705E-1,0
STARLINK-37670,2026-133Y,2026-06-26T06:00:02.000160,15.85449676,.00010503,53.1560,276.1037,78.0265,76.3156,0,U,69530,999,337,-.84779774E-2,-.1789089E-1,0
STARLINK-37897,2026-133Z,2026-06-26T06:00:02.000160,15.85870253,.00011664,53.1560,276.0734,76.5846,91.9636,0,U,69531,999,332,-.82832497E-2,-.1785327E-1,0
STARLINK-37933,2026-133AA,2026-06-26T06:00:02.000160,15.86556067,.00011318,53.1559,276.0305,83.6475,105.3461,0,U,69532,999,332,-.89218164E-2,-.2004541E-1,0
STARLINK-37890,2026-133AB,2026-06-26T06:00:02.000160,15.88195540,.00011672,53.1560,275.9955,81.2056,124.7017,0,U,69533,999,332,-.81311949E-2,-.1986076E-1,0
STARLINK-37407,2026-133AC,2026-06-26T06:00:02.000160,15.88472243,.00010136,53.1557,275.9557,83.8520,140.7550,0,U,69534,999,337,-.77232195E-2,-.1878902E-1,0
STARLINK-37888,2026-133AD,2026-06-26T06:00:02.000160,15.90931432,.00007729,53.1558,275.9189,84.8159,157.5436,0,U,69535,999,332,-.71023602E-2,-.2263388E-1,.13581189E-2
STARLINK-37889,2026-133AE,2026-06-26T06:00:02.000160,15.82558704,.00009735,53.1589,276.3630,77.0184,314.0119,0,U,69536,999,332,-.26054364E-2,-.524625E-2,0
2026-134A,2026-134A,2026-06-26T06:31:05.579040,15.09289508,.00145507,97.7015,247.4089,237.3101,122.6725,0,U,69538,999,168,.40391107E-3,.6387E-4,0
2026-134B,2026-134B,2026-06-26T06:29:26.080800,15.09446070,.00146407,97.6989,247.4071,239.9634,120.0142,0,U,69539,999,167,.39715419E-3,.6306E-4,0
2026-134C,2026-134C,2026-06-25T17:45:26.744832,15.09471365,.00140699,97.6994,246.8758,243.2483,116.7306,0,U,69540,999,159,.41696143E-3,.6628E-4,0
2026-134D,2026-134D,2026-06-26T06:28:29.862912,15.09534961,.00151074,97.7033,247.4136,240.9942,118.9773,0,U,69541,999,167,.40097937E-3,.6384E-4,0
2026-134E,2026-134E,2026-06-26T06:28:15.875616,15.09557175,.0014851,97.7052,247.4164,241.6479,118.3253,0,U,69542,999,167,.40234559E-3,.641E-4,0
2026-134F,2026-134F,2026-06-25T19:19:38.010720,15.09597077,.00141292,97.7004,246.9448,245.1853,114.7907,0,U,69543,999,160,.40198136E-3,.6409E-4,0
