STARLINK-37607          
1 69514U 26133G   26177.25002315  .00110024  00000+0  55498-3 0  9992
2 69514  53.1594 276.5422 0000736  90.0119 213.7459 15.80830494  3329
STARLINK-37232          
1 69515U 26133H   26177.25002315  .00120745  00000+0  60809-3 0  9996
2 69515  53.1586 276.4967 0001476  87.8374 237.9902 15.80825353  3322
STARLINK-37323          
1 69516U 26133J   26177.25002315  .00176393  00000+0  88089-3 0  9997
2 69516  53.1591 276.4902 0001518 107.9908 220.8897 15.80828474  3323
STARLINK-37357          
1 69517U 26133K   26177.25002315  .00044703  00000+0  22900-3 0  9997
2 69517  53.1589 276.4628 0001152 100.0262 242.0482 15.80859270  3321
STARLINK-37408          
1 69518U 26133L   26177.25002315  .00036859  00000+0  18946-3 0  9996
2 69518  53.1589 276.4483 0000842  58.6776 290.3786 15.80875736  3322
STARLINK-37570          
1 69519U 26133M   26177.25002315  .00140564  00000+0  70618-3 0  9990
2 69519  53.1590 276.3868 0000738  63.9469 314.2980 15.80810956  3328
STARLINK-37510          
1 69520U 26133N   26177.25002315  .00053513  00000+0  27310-3 0  9990
2 69520  53.1588 276.4219 0000810  62.9213 298.8138 15.80863790  3321
STARLINK-37586          
1 69521U 26133P   26177.25002315 -.01604546  00000+0 -80874-2 0  9995
2 69521  53.1573 276.3225 0000740  86.3230 323.0458 15.83829343  3328
STARLINK-37379          
1 69522U 26133Q   26177.25002315 -.01401885  00000+0 -75603-2 0  9991
2 69522  53.1584 276.3200 0000619  93.5811 316.9033 15.82030106  3379
STARLINK-37429          
1 69523U 26133R   26177.25002315 -.01635816  00000+0 -88572-2 0  9994
2 69523  53.1581 276.3007 0000908  73.9583 345.6865 15.82389267  3378
STARLINK-37352          
1 69524U 26133S   26177.25002315 -.01666837  00000+0 -88391-2 0  9991
2 69524  53.1580 276.2703 0000614  90.4495 343.7988 15.82891500  3373
STARLINK-37490          
1 69525U 26133T   26177.25002315 -.02008263  00000+0 -93515-2 0  9990
2 69525  53.1562 276.1888 0001155  79.1854  34.1994 15.85646786  3376
STARLINK-37438          
1 69526U 26133U   26177.25002315 -.01913455  00000+0 -99289-2 0  9992
2 69526  53.1577 276.2453 0000816  81.5119   5.0903 15.83264933  3371
STARLINK-37484          
1 69527U 26133V   26177.25002315 -.01971936  00000+0 -90603-2 0  9992
2 69527  53.1561 276.1752 0000964  82.8136  37.0761 15.85863084  3374
STARLINK-37523          
1 69528U 26133W   26177.25002315 -.01823806  00000+0 -88585-2 0  9991
2 69528  53.1569 276.1644 0000921  83.9058  41.2153 15.84491644  3371
STARLINK-37369          
1 69529U 26133X   26177.25002315 -.01784705  00000+0 -87245-2 0  9998
2 69529  53.1562 276.1423 0001042  66.5874  68.9585 15.84805180  3377
STARLINK-37670          
1 69530U 26133Y   26177.25002315 -.01789089  00000+0 -84780-2 0  9991
2 69530  53.1560 276.1037 0001050  78.0265  76.3156 15.85449676  3371
STARLINK-37897          
1 69531U 26133Z   26177.25002315 -.01785327  00000+0 -82832-2 0  9999
2 69531  53.1560 276.0734 0001166  76.5846  91.9636 15.85870253  3321
STARLINK-37933          
1 69532U 26133AA  26177.25002315 -.02004541  00000+0 -89218-2 0  9998
2 69532  53.1559 276.0305 0001131  83.6475 105.3461 15.86556067  3324
STARLINK-37890          
1 69533U 26133AB  26177.25002315 -.01986076  00000+0 -81312-2 0  9997
2 69533  53.1560 275.9955 0001167  81.2056 124.7017 15.88195540  3323
STARLINK-37407          
1 69534U 26133AC  26177.25002315 -.01878902  00000+0 -77232-2 0  9992
2 69534  53.1557 275.9557 0001013  83.8520 140.7550 15.88472243  3375
STARLINK-37888          
1 69535U 26133AD  26177.25002315 -.02263388  13581-2 -71024-2 0  9994
2 69535  53.1558 275.9189 0000772  84.8159 157.5436 15.90931432  3325
STARLINK-37889          
1 69536U 26133AE  26177.25002315 -.00524625  00000+0 -26054-2 0  9999
2 69536  53.1589 276.3630 0000973  77.0184 314.0119 15.82558704  3327
2026-134A               
1 69538U 26134A   26177.27159235  .00006387  00000+0  40391-3 0  9997
2 69538  97.7015 247.4089 0014550 237.3101 122.6725 15.09289508  1685
2026-134B               
1 69539U 26134B   26177.27044075  .00006306  00000+0  39715-3 0  9992
2 69539  97.6989 247.4071 0014640 239.9634 120.0142 15.09446070  1678
2026-134C               
1 69540U 26134C   26176.73989288  .00006628  00000+0  41696-3 0  9996
2 69540  97.6994 246.8758 0014069 243.2483 116.7306 15.09471365  1596
2026-134D               
1 69541U 26134D   26177.26979008  .00006384  00000+0  40098-3 0  9999
2 69541  97.7033 247.4136 0015107 240.9942 118.9773 15.09534961  1670
2026-134E               
1 69542U 26134E   26177.26962819  .00006410  00000+0  40235-3 0  9995
2 69542  97.7052 247.4164 0014851 241.6479 118.3253 15.09557175  1670
2026-134F               
1 69543U 26134F   26176.80530105  .00006409  00000+0  40198-3 0  9990
2 69543  97.7004 246.9448 0014129 245.1853 114.7907 15.09597077  1604
